0 TITAN 3C TRANSTAGE DEB
1 01682U 65082AV  13282.76407166  .00000951  00000-0  17743-3 0  9025
2 01682 032.4085 110.5895 0060023 214.5848 145.0889 14.61448789531278
0 TITAN 3C TRANSTAGE DEB
1 01682U 65082AV  13287.47734413  .00001146  00000-0  21511-3 0  9043
2 01682 032.4093 082.8359 0059964 256.4997 102.8966 14.61459290531967
0 TITAN 3C TRANSTAGE DEB
1 01682U 65082AV  13289.59490900  .00001300  00000-0  24501-3 0  9053
2 01682 032.4096 070.3667 0059922 275.2918 084.0897 14.61466873532274
0 TITAN 3C TRANSTAGE DEB
1 01682U 65082AV  13291.78078650  .00001288  00000-0  24272-3 0  9062
2 01682 032.4098 057.4957 0059868 294.7125 064.7301 14.61471962532594
0 TITAN 3C TRANSTAGE DEB
1 01682U 65082AV  13294.51314039  .00001354  00000-0  25556-3 0  9071
2 01682 032.4100 041.4071 0059719 319.1144 040.5037 14.61480789532995
